CCSDS_OMM_VERS = 2.0
CREATION_DATE  = 
ORIGINATOR     = 

OBJECT_NAME    = 2025-313G
OBJECT_ID      = 2025-313G
CENTER_NAME    = EARTH
REF_FRAME      = TEME
TIME_SYSTEM    = UTC
MEAN_ELEMENT_THEORY = SGP/SGP4

EPOCH          = 2026-01-11T05:46:11.724672
MEAN_MOTION    = 15.64652041
ECCENTRICITY   = .00104264
INCLINATION    = 97.1032
RA_OF_ASC_NODE = 88.5391
ARG_OF_PERICENTER = 190.0152
MEAN_ANOMALY   = 170.0902

EPHEMERIS_TYPE = 0
CLASSIFICATION_TYPE = U
NORAD_CAT_ID   = 67254
ELEMENT_SET_NO = 999
REV_AT_EPOCH   = 211
BSTAR          = .61769983E-3
MEAN_MOTION_DOT = .60109E-3
MEAN_MOTION_DDOT = 0

CCSDS_OMM_VERS = 2.0
CREATION_DATE  = 
ORIGINATOR     = 

OBJECT_NAME    = 2025-313H
OBJECT_ID      = 2025-313H
CENTER_NAME    = EARTH
REF_FRAME      = TEME
TIME_SYSTEM    = UTC
MEAN_ELEMENT_THEORY = SGP/SGP4

EPOCH          = 2026-01-11T06:22:50.753280
MEAN_MOTION    = 15.02155303
ECCENTRICITY   = .0090841
INCLINATION    = 97.3108
RA_OF_ASC_NODE = 87.9632
ARG_OF_PERICENTER = 148.6535
MEAN_ANOMALY   = 212.0151

EPHEMERIS_TYPE = 0
CLASSIFICATION_TYPE = U
NORAD_CAT_ID   = 67255
ELEMENT_SET_NO = 999
REV_AT_EPOCH   = 206
BSTAR          = .16718702E-3
MEAN_MOTION_DOT = .2343E-4
MEAN_MOTION_DDOT = 0

CCSDS_OMM_VERS = 2.0
CREATION_DATE  = 
ORIGINATOR     = 

OBJECT_NAME    = SITRO-AIS-57
OBJECT_ID      = 2025-313J
CENTER_NAME    = EARTH
REF_FRAME      = TEME
TIME_SYSTEM    = UTC
MEAN_ELEMENT_THEORY = SGP/SGP4

EPOCH          = 2026-01-11T05:47:22.731648
MEAN_MOTION    = 15.19817191
ECCENTRICITY   = .00166001
INCLINATION    = 97.4106
RA_OF_ASC_NODE = 88.4556
ARG_OF_PERICENTER = 188.6914
MEAN_ANOMALY   = 171.4036

EPHEMERIS_TYPE = 0
CLASSIFICATION_TYPE = U
NORAD_CAT_ID   = 67256
ELEMENT_SET_NO = 999
REV_AT_EPOCH   = 208
BSTAR          = .60019964E-3
MEAN_MOTION_DOT = .12849E-3
MEAN_MOTION_DDOT = 0

CCSDS_OMM_VERS = 2.0
CREATION_DATE  = 
ORIGINATOR     = 

OBJECT_NAME    = SITRO-AIS-59
OBJECT_ID      = 2025-313K
CENTER_NAME    = EARTH
REF_FRAME      = TEME
TIME_SYSTEM    = UTC
MEAN_ELEMENT_THEORY = SGP/SGP4

EPOCH          = 2026-01-11T05:46:52.732704
MEAN_MOTION    = 15.19842638
ECCENTRICITY   = .00163322
INCLINATION    = 97.4113
RA_OF_ASC_NODE = 88.4572
ARG_OF_PERICENTER = 190.7708
MEAN_ANOMALY   = 169.3180

EPHEMERIS_TYPE = 0
CLASSIFICATION_TYPE = U
NORAD_CAT_ID   = 67257
ELEMENT_SET_NO = 999
REV_AT_EPOCH   = 208
BSTAR          = .55315935E-3
MEAN_MOTION_DOT = .11843E-3
MEAN_MOTION_DDOT = 0

CCSDS_OMM_VERS = 2.0
CREATION_DATE  = 
ORIGINATOR     = 

OBJECT_NAME    = SITRO-AIS-58
OBJECT_ID      = 2025-313L
CENTER_NAME    = EARTH
REF_FRAME      = TEME
TIME_SYSTEM    = UTC
MEAN_ELEMENT_THEORY = SGP/SGP4

EPOCH          = 2026-01-11T05:46:31.612224
MEAN_MOTION    = 15.19885587
ECCENTRICITY   = .00162702
INCLINATION    = 97.4109
RA_OF_ASC_NODE = 88.4561
ARG_OF_PERICENTER = 190.0521
MEAN_ANOMALY   = 170.0391

EPHEMERIS_TYPE = 0
CLASSIFICATION_TYPE = U
NORAD_CAT_ID   = 67258
ELEMENT_SET_NO = 999
REV_AT_EPOCH   = 208
BSTAR          = .57911815E-3
MEAN_MOTION_DOT = .12418E-3
MEAN_MOTION_DDOT = 0

CCSDS_OMM_VERS = 2.0
CREATION_DATE  = 
ORIGINATOR     = 

OBJECT_NAME    = 2025-313M
OBJECT_ID      = 2025-313M
CENTER_NAME    = EARTH
REF_FRAME      = TEME
TIME_SYSTEM    = UTC
MEAN_ELEMENT_THEORY = SGP/SGP4

EPOCH          = 2026-01-11T04:08:53.796768
MEAN_MOTION    = 15.20151765
ECCENTRICITY   = .00155219
INCLINATION    = 97.4151
RA_OF_ASC_NODE = 88.4130
ARG_OF_PERICENTER = 188.8532
MEAN_ANOMALY   = 171.2432

EPHEMERIS_TYPE = 0
CLASSIFICATION_TYPE = U
NORAD_CAT_ID   = 67259
ELEMENT_SET_NO = 999
REV_AT_EPOCH   = 207
BSTAR          = .65852491E-3
MEAN_MOTION_DOT = .14239E-3
MEAN_MOTION_DDOT = 0

CCSDS_OMM_VERS = 2.0
CREATION_DATE  = 
ORIGINATOR     = 

OBJECT_NAME    = SITRO-AIS-60
OBJECT_ID      = 2025-313N
CENTER_NAME    = EARTH
REF_FRAME      = TEME
TIME_SYSTEM    = UTC
MEAN_ELEMENT_THEORY = SGP/SGP4

EPOCH          = 2026-01-11T05:44:45.691008
MEAN_MOTION    = 15.19984610
ECCENTRICITY   = .00156575
INCLINATION    = 97.4117
RA_OF_ASC_NODE = 88.4596
ARG_OF_PERICENTER = 190.2218
MEAN_ANOMALY   = 169.8701

EPHEMERIS_TYPE = 0
CLASSIFICATION_TYPE = U
NORAD_CAT_ID   = 67260
ELEMENT_SET_NO = 999
REV_AT_EPOCH   = 208
BSTAR          = .44836044E-3
MEAN_MOTION_DOT = .962E-4
MEAN_MOTION_DDOT = 0

CCSDS_OMM_VERS = 2.0
CREATION_DATE  = 
ORIGINATOR     = 

OBJECT_NAME    = 2025-313P
OBJECT_ID      = 2025-313P
CENTER_NAME    = EARTH
REF_FRAME      = TEME
TIME_SYSTEM    = UTC
MEAN_ELEMENT_THEORY = SGP/SGP4

EPOCH          = 2026-01-11T04:07:42.219552
MEAN_MOTION    = 15.20317087
ECCENTRICITY   = .00153458
INCLINATION    = 97.4151
RA_OF_ASC_NODE = 88.4147
ARG_OF_PERICENTER = 189.1399
MEAN_ANOMALY   = 170.9559

EPHEMERIS_TYPE = 0
CLASSIFICATION_TYPE = U
NORAD_CAT_ID   = 67261
ELEMENT_SET_NO = 999
REV_AT_EPOCH   = 207
BSTAR          = .87601949E-3
MEAN_MOTION_DOT = .19066E-3
MEAN_MOTION_DDOT = 0

CCSDS_OMM_VERS = 2.0
CREATION_DATE  = 
ORIGINATOR     = 

OBJECT_NAME    = 2025-313Q
OBJECT_ID      = 2025-313Q
CENTER_NAME    = EARTH
REF_FRAME      = TEME
TIME_SYSTEM    = UTC
MEAN_ELEMENT_THEORY = SGP/SGP4

EPOCH          = 2026-01-11T05:43:28.050240
MEAN_MOTION    = 15.20146459
ECCENTRICITY   = .00153904
INCLINATION    = 97.4118
RA_OF_ASC_NODE = 88.4611
ARG_OF_PERICENTER = 190.8928
MEAN_ANOMALY   = 169.1976

EPHEMERIS_TYPE = 0
CLASSIFICATION_TYPE = U
NORAD_CAT_ID   = 67262
ELEMENT_SET_NO = 999
REV_AT_EPOCH   = 208
BSTAR          = .66961544E-3
MEAN_MOTION_DOT = .14477E-3
MEAN_MOTION_DDOT = 0

CCSDS_OMM_VERS = 2.0
CREATION_DATE  = 
ORIGINATOR     = 

OBJECT_NAME    = 2025-313R
OBJECT_ID      = 2025-313R
CENTER_NAME    = EARTH
REF_FRAME      = TEME
TIME_SYSTEM    = UTC
MEAN_ELEMENT_THEORY = SGP/SGP4

EPOCH          = 2026-01-11T04:08:53.221344
MEAN_MOTION    = 15.20102435
ECCENTRICITY   = .00153123
INCLINATION    = 97.4130
RA_OF_ASC_NODE = 88.4100
ARG_OF_PERICENTER = 190.0205
MEAN_ANOMALY   = 170.0727

EPHEMERIS_TYPE = 0
CLASSIFICATION_TYPE = U
NORAD_CAT_ID   = 67263
ELEMENT_SET_NO = 999
REV_AT_EPOCH   = 207
BSTAR          = .56957006E-3
MEAN_MOTION_DOT = .12284E-3
MEAN_MOTION_DDOT = 0

CCSDS_OMM_VERS = 2.0
CREATION_DATE  = 
ORIGINATOR     = 

OBJECT_NAME    = 2025-313S
OBJECT_ID      = 2025-313S
CENTER_NAME    = EARTH
REF_FRAME      = TEME
TIME_SYSTEM    = UTC
MEAN_ELEMENT_THEORY = SGP/SGP4

EPOCH          = 2026-01-11T05:44:20.781888
MEAN_MOTION    = 15.20001366
ECCENTRICITY   = .00152591
INCLINATION    = 97.4202
RA_OF_ASC_NODE = 88.4690
ARG_OF_PERICENTER = 194.9436
MEAN_ANOMALY   = 165.1351

EPHEMERIS_TYPE = 0
CLASSIFICATION_TYPE = U
NORAD_CAT_ID   = 67264
ELEMENT_SET_NO = 999
REV_AT_EPOCH   = 208
BSTAR          = .39952558E-3
MEAN_MOTION_DOT = .8566E-4
MEAN_MOTION_DDOT = 0

CCSDS_OMM_VERS = 2.0
CREATION_DATE  = 
ORIGINATOR     = 

OBJECT_NAME    = 2025-313T
OBJECT_ID      = 2025-313T
CENTER_NAME    = EARTH
REF_FRAME      = TEME
TIME_SYSTEM    = UTC
MEAN_ELEMENT_THEORY = SGP/SGP4

EPOCH          = 2026-01-11T05:43:16.171968
MEAN_MOTION    = 15.20132931
ECCENTRICITY   = .00152226
INCLINATION    = 97.4111
RA_OF_ASC_NODE = 88.4711
ARG_OF_PERICENTER = 190.6150
MEAN_ANOMALY   = 169.4767

EPHEMERIS_TYPE = 0
CLASSIFICATION_TYPE = U
NORAD_CAT_ID   = 67265
ELEMENT_SET_NO = 999
REV_AT_EPOCH   = 208
BSTAR          = .56243248E-3
MEAN_MOTION_DOT = .12139E-3
MEAN_MOTION_DDOT = 0

