2025-313G               
1 67254U 25313G   26011.24041348  .00060109  00000+0  61770-3 0  9993
2 67254  97.1032  88.5391 0010426 190.0152 170.0902 15.64652041  2110
2025-313H               
1 67255U 25313H   26011.26586520  .00002343  00000+0  16719-3 0  9991
2 67255  97.3108  87.9632 0090841 148.6535 212.0151 15.02155303  2069
SITRO-AIS-57            
1 67256U 25313J   26011.24123532  .00012849  00000+0  60020-3 0  9996
2 67256  97.4106  88.4556 0016600 188.6914 171.4036 15.19817191  2086
SITRO-AIS-59            
1 67257U 25313K   26011.24088811  .00011843  00000+0  55316-3 0  9992
2 67257  97.4113  88.4572 0016332 190.7708 169.3180 15.19842638  2080
SITRO-AIS-58            
1 67258U 25313L   26011.24064366  .00012418  00000+0  57912-3 0  9995
2 67258  97.4109  88.4561 0016270 190.0521 170.0391 15.19885587  2084
2025-313M               
1 67259U 25313M   26011.17284487  .00014239  00000+0  65852-3 0  9991
2 67259  97.4151  88.4130 0015521 188.8532 171.2432 15.20151765  2073
SITRO-AIS-60            
1 67260U 25313N   26011.23941772  .00009620  00000+0  44836-3 0  9994
2 67260  97.4117  88.4596 0015657 190.2218 169.8701 15.19984610  2085
2025-313P               
1 67261U 25313P   26011.17201643  .00019066  00000+0  87602-3 0  9997
2 67261  97.4151  88.4147 0015345 189.1399 170.9559 15.20317087  2070
2025-313Q               
1 67262U 25313Q   26011.23851910  .00014477  00000+0  66962-3 0  9990
2 67262  97.4118  88.4611 0015390 190.8928 169.1976 15.20146459  2084
2025-313R               
1 67263U 25313R   26011.17283821  .00012284  00000+0  56957-3 0  9991
2 67263  97.4130  88.4100 0015312 190.0205 170.0727 15.20102435  2076
2025-313S               
1 67264U 25313S   26011.23912942  .00008566  00000+0  39953-3 0  9997
2 67264  97.4202  88.4690 0015259 194.9436 165.1351 15.20001366  2080
2025-313T               
1 67265U 25313T   26011.23838162  .00012139  00000+0  56243-3 0  9991
2 67265  97.4111  88.4711 0015222 190.6150 169.4767 15.20132931  2081
